{
  "norad_id": 65767,
  "name": "KUIPER-00145",
  "history": [
    {
      "epoch": "2026-03-28T20:48:26.205408",
      "apogee_km": 630.188253839684,
      "perigee_km": 629.07163625466,
      "latitude_deg": 25.20613533463818,
      "longitude_deg": 119.92911712010391,
      "semi_major_axis_km": 7007.766945047171,
      "eccentricity": 7.967e-05,
      "inclination_deg": 51.9005,
      "raan_deg": 313.3034,
      "arg_perigee_deg": 102.5299,
      "mean_anomaly_deg": 257.5753,
      "mean_motion_rev_day": 14.79903123
    },
    {
      "epoch": "2026-03-29T00:02:55.576896",
      "apogee_km": 630.1578477377743,
      "perigee_km": 629.1024780030466,
      "latitude_deg": -51.72199680631869,
      "longitude_deg": 132.89508543978445,
      "semi_major_axis_km": 7007.76716287041,
      "eccentricity": 7.53e-05,
      "inclination_deg": 51.901,
      "raan_deg": 312.7066,
      "arg_perigee_deg": 136.3719,
      "mean_anomaly_deg": 223.7303,
      "mean_motion_rev_day": 14.79903054
    }
  ]
}